STARLINK-34504          
1 64600U 25137G   26129.19782119  .00031523  00000+0  10725-2 0  9992
2 64600  53.1595  54.5620 0001180  84.6261 275.4874 15.30182040 49997
STARLINK-34508          
1 64601U 25137H   26129.93622229  .00009290  00000+0  32540-3 0  9996
2 64601  53.1581  50.6364 0001041  89.7247 270.3873 15.30198237 50115
STARLINK-34435          
1 64602U 25137J   26129.10823571  .00004929  00000+0  17846-3 0  9995
2 64602  53.1601  54.7110 0001271  72.6445 287.4695 15.30196588 49980
STARLINK-34475          
1 64603U 25137K   26129.95099675  .00010839  00000+0  37762-3 0  9995
2 64603  53.1586  50.7242 0001386  60.9153 299.1986 15.30193449 50111
STARLINK-34488          
1 64604U 25137L   26129.93305693  .00008102  00000+0  28535-3 0  9992
2 64604  53.1567  50.6177 0001099  91.0482 269.0645 15.30202306 50119
STARLINK-34516          
1 64605U 25137M   26129.05823757  .00019888  00000+0  65004-3 0  9997
2 64605  53.1607  54.4021 0001292  89.1684 270.9466 15.31744050 50088
STARLINK-34073          
1 64606U 25137N   26129.92883725  .00012800  00000+0  44362-3 0  9996
2 64606  53.1571  50.5861 0001218  80.6133 279.5005 15.30193122 49990
STARLINK-34532          
1 64607U 25137P   26129.11763679  .00038514  00000+0  13045-2 0  9996
2 64607  53.1575  64.7095 0001111 113.7186 246.3931 15.30230658 49849
STARLINK-34519          
1 64608U 25137Q   26129.94257016  .00009015  00000+0  31649-3 0  9996
2 64608  53.1581  50.6708 0001403  96.6471 263.4689 15.30160897 50111
STARLINK-34513          
1 64609U 25137R   26129.93938923  .00011044  00000+0  38446-3 0  9996
2 64609  53.1573  50.6568 0001158  95.0476 265.0657 15.30197840 50203
STARLINK-34569          
1 64610U 25137S   26129.05452449  .00004299  00000+0  15723-3 0  9992
2 64610  53.1610  55.0852 0000997 107.2242 252.8868 15.30192156 49974
STARLINK-34494          
1 64611U 25137T   26129.94888727  .00010874  00000+0  37881-3 0  9998
2 64611  53.1585  50.7112 0001361  91.2923 268.8233 15.30192486 50118
STARLINK-34521          
1 64612U 25137U   26129.93833035  .00011399  00000+0  39640-3 0  9998
2 64612  53.1579  50.6457 0001075  94.6599 265.4525 15.30200409 50113
STARLINK-34500          
1 64613U 25137V   26129.11245413  .00010201  00000+0  35604-3 0  9993
2 64613  53.1604  54.7332 0001534  76.6589 283.4583 15.30202000 50088
STARLINK-34440          
1 64614U 25137W   26129.95416515  .00011635  00000+0  40443-3 0  9998
2 64614  53.1593  50.7446 0001493  60.5976 299.5173 15.30193930 50112
STARLINK-34469          
1 64615U 25137X   26129.92461382  .00023109  00000+0  78951-3 0  9992
2 64615  53.1584  50.5605 0000886  88.7685 271.3418 15.30216793 50115
STARLINK-34413          
1 64616U 25137Y   26129.05980242  .00015113  00000+0  52131-3 0  9996
2 64616  53.1610  55.1155 0001151  92.7329 267.3803 15.30202781 50073
STARLINK-34417          
1 64617U 25137Z   26129.90830956  .00008725  00000+0  30639-3 0  9997
2 64617  53.1590  38.1645 0001177  98.6626 261.4508 15.30194623 50385
STARLINK-34415          
1 64618U 25137AA  26129.94466414  .00005730  00000+0  20544-3 0  9993
2 64618  53.1582  50.6825 0001204 107.8393 252.2739 15.30198404 50117
STARLINK-34416          
1 64619U 25137AB  26129.94149797  .00012154  00000+0  42185-3 0  9999
2 64619  53.1578  50.6619 0001269  91.2827 268.8319 15.30196815 50114
STARLINK-34414          
1 64620U 25137AC  26129.11667447  .00009852  00000+0  34426-3 0  9997
2 64620  53.1610  54.7559 0001130  81.9625 278.1504 15.30204611 49987
HAWK-12C                
1 64621U 25138A   26129.94279163  .00002922  00000+0  14716-3 0  9995
2 64621  97.4353 133.0482 0012187 276.9152  83.0695 15.17917125 48062
HAWK-12B                
1 64622U 25138B   26129.94297108  .00002863  00000+0  14430-3 0  9992
2 64622  97.4476 133.6351 0011177 271.3785  88.6169 15.17916835 48063
HAWK-12A                
1 64623U 25138C   26129.94257986  .00002897  00000+0  14595-3 0  9992
2 64623  97.4415 133.3404 0012118 270.8703  89.1143 15.17917712 48066
KESTREL-0A              
1 64624U 25138D   26129.92721530  .00005636  00000+0  24538-3 0  9994
2 64624  97.4415 134.4287 0011391 256.0983 103.8986 15.22569367 48127
STARLINK-34464          
1 64664U 25139A   26129.92642027  .00020886  00000+0  62717-3 0  9997
2 64664  53.1606 202.3255 0001424 113.5958 246.5195 15.34419922 49668
STARLINK-34555          
1 64665U 25139B   26129.92433053  .00017494  00000+0  52797-3 0  9993
2 64665  53.1600 202.3137 0001162  88.8968 271.2168 15.34383479 49567
STARLINK-34390          
1 64666U 25139C   26129.89066106  .00012255  00000+0  37309-3 0  9993
2 64666  53.1574 202.1024 0001213  68.2112 291.9020 15.34412381 49720
STARLINK-34382          
1 64667U 25139D   26129.91403449  .00007210  00000+0  25535-3 0  9995
2 64667  53.1588 202.9578 0000923  88.8088 271.3019 15.30193402 49653
STARLINK-34395          
1 64668U 25139E   26129.93274570  .00016149  00000+0  48818-3 0  9999
2 64668  53.1598 202.3655 0001276  86.0721 274.0428 15.34390806 49667
STARLINK-34394          
1 64669U 25139F   26129.52930161 -.00000223  00000+0  45185-5 0  9993
2 64669  53.1603 204.1156 0001120  81.1478 278.9652 15.34390259 49602
STARLINK-34287          
1 64670U 25139G   26129.91381069  .00021225  00000+0  63794-3 0  9993
2 64670  53.1602 202.2469 0001260  88.7216 271.3931 15.34380553 49666
STARLINK-34365          
1 64671U 25139H   26129.93695306  .00016642  00000+0  50270-3 0  9990
2 64671  53.1601 202.3892 0001128  74.3076 285.8051 15.34392680 49729
STARLINK-34442          
1 64672U 25139J   26129.90118173  .00011355  00000+0  34675-3 0  9997
2 64672  53.1580 202.1644 0000989  78.8423 281.2691 15.34393957 49669
STARLINK-34288          
1 64673U 25139K   26129.90749345  .00013771  00000+0  41796-3 0  9995
2 64673  53.1588 202.2058 0001103  77.3082 282.8044 15.34399764 49663
STARLINK-34539          
1 64674U 25139L   26129.89697560  .00015713  00000+0  47537-3 0  9992
2 64674  53.1582 202.1411 0001134  85.4976 274.6156 15.34389971 49567
STARLINK-34590          
1 64675U 25139M   26129.92142054  .00010926  00000+0  38051-3 0  9992
2 64675  53.1591 203.0008 0001297  77.5080 282.6066 15.30198426 49656
STARLINK-34573          
1 64676U 25139N   26129.49774269  .00007745  00000+0  24023-3 0  9993
2 64676  53.1572 203.9135 0001034  77.3184 282.7934 15.34384771 49602
STARLINK-34605          
1 64677U 25139P   26129.90135014  .00008008  00000+0  28238-3 0  9994
2 64677  53.1584 192.2337 0000969  69.9433 290.1672 15.30180469 49808
STARLINK-34525          
1 64678U 25139Q   26129.91614605  .00017114  00000+0  58882-3 0  9990
2 64678  53.1584 202.9660 0001199  78.5940 281.5195 15.30188401 49653
STARLINK-34489          
1 64679U 25139R   26129.93484717  .00022398  00000+0  67225-3 0  9993
2 64679  53.1599 202.3738 0001233  81.0977 279.0165 15.34391205 49660
STARLINK-34502          
1 64680U 25139S   26129.89276587  .00016522  00000+0  49908-3 0  9994
2 64680  53.1578 202.1105 0001042  74.8998 285.2120 15.34397215 49663
STARLINK-34553          
1 64681U 25139T   26129.56076521  .00012423  00000+0  37869-3 0  9994
2 64681  53.1583 203.5931 0001205  54.4843 305.6272 15.34359195 49611
STARLINK-34551          
1 64682U 25139U   26129.90451222  .00018616  00000+0  63916-3 0  9990
2 64682  53.1590 192.2428 0001025  78.4988 281.6128 15.30195048 49806
STARLINK-34550          
1 64683U 25139V   26129.91170802  .00008371  00000+0  25882-3 0  9991
2 64683  53.1588 202.2286 0001334  91.1986 268.9170 15.34374906 49666
STARLINK-34485          
1 64684U 25139W   26129.92853546  .00013806  00000+0  41906-3 0  9990
2 64684  53.1599 202.3331 0001113  63.7244 296.3873 15.34394809 49667
STARLINK-34253          
1 64685U 25139X   26129.48309917  .00007378  00000+0  22931-3 0  9994
2 64685  53.1590 204.5276 0001164  79.5290 280.5844 15.34394344 49592
STARLINK-34565          
1 64686U 25139Y   26129.46626990  .00017574  00000+0  53019-3 0  9996
2 64686  53.1601 204.4253 0001460  89.1784 270.9386 15.34390881 49590
STARLINK-34554          
1 64687U 25139Z   26129.89908427  .00019547  00000+0  58834-3 0  9994
2 64687  53.1588 202.1493 0001690  73.0943 287.0245 15.34389344 49663
STARLINK-34262          
1 64688U 25139AA  26129.52719474  .00008896  00000+0  27416-3 0  9994
2 64688  53.1599 204.0914 0000973  87.1221 272.9893 15.34395683 49668
STARLINK-34538          
1 64689U 25139AB  26129.91591751 -.00002650  00000+0 -67411-4 0  9998
2 64689  53.1601 202.2533 0001112  78.3330 281.7797 15.34365990 49668
STARLINK-34250          
1 64690U 25139AC  26129.47468578  .00022362  00000+0  67086-3 0  9998
2 64690  53.1596 204.4750 0001167  64.7780 295.3344 15.34406718 49591
LYRA-4                  
1 64691U 25140A   26129.88938974  .00000869  00000+0  14166-3 0  9997
2 64691  96.0010 260.2754 0011725 342.5453  17.5355 14.72406291 46420
GOSAT-GW (IBUKI GW)     
1 64694U 25141A   26129.94035904  .00000564  00000+0  10778-3 0  9996
2 64694  98.0562  67.8820 0001427  84.0690 276.0677 14.67556006 46233
STARLINK-34497          
1 64696U 25142A   26129.52016306  .00002175  00000+0  18999-3 0  9991
2 64696  70.0003 161.0432 0003866 268.4159  91.6557 14.98338460 48751
STARLINK-34584          
1 64697U 25142B   26129.50331188  .00003247  00000+0  27975-3 0  9993
2 64697  70.0003 160.9784 0003720 268.2898  91.7835 14.98334539 48592
STARLINK-34535          
1 64698U 25142C   26129.81626137  .00002825  00000+0  24437-3 0  9990
2 64698  70.0013 160.4441 0004444 263.4346  96.6307 14.98336251 48623
STARLINK-34600          
1 64699U 25142D   26129.81208372  .00001493  00000+0  13288-3 0  9990
2 64699  70.0013 160.4250 0004448 267.4345  92.6305 14.98334150 48630
STARLINK-34560          
1 64700U 25142E   26129.82459363  .00002668  00000+0  23120-3 0  9993
2 64700  70.0037 160.4694 0003271 284.3989  75.6807 14.98348515 48599
